STARLINK-36892          
1 67944U 26037N   26069.50002314 -.00013094  00000+0 -59732-4 0  9994
2 67944  42.9985 193.4961 0001580 288.5186 330.7709 15.82020008  3327
STARLINK-36908          
1 67945U 26037P   26069.50002314 -.00063692  00000+0 -30164-3 0  9991
2 67945  42.9983 193.4731 0001563 257.5897  10.2436 15.82052981  3329
STARLINK-36909          
1 67946U 26037Q   26069.50002314 -.00014415  00000+0 -66019-4 0  9990
2 67946  42.9983 193.4634 0001460 270.4967   1.6106 15.82021752  3320
STARLINK-36920          
1 67947U 26037R   26069.50002314 -.00022661  00000+0 -10532-3 0  9991
2 67947  42.9984 193.4517 0001396 265.5254  10.8579 15.82025053  3328
STARLINK-36873          
1 67948U 26037S   26069.50002314 -.00170514  00000+0 -82218-3 0  9993
2 67948  42.9984 193.4414 0001405 279.6417   1.1079 15.82044136  3324
STARLINK-36863          
1 67949U 26037T   26069.50002314 -.00027305  00000+0 -12750-3 0  9997
2 67949  42.9985 193.4310 0001532 265.5508  19.3759 15.82024418  3324
STARLINK-36887          
1 67950U 26037U   26069.50002314  .00000849  00000+0  65597-5 0  9990
2 67950  42.9985 193.4201 0001311 268.4358  20.7562 15.82027391  3326
STARLINK-36897          
1 67951U 26037V   26069.50002314  .00048613  00000+0  23232-3 0  9990
2 67951  42.9985 193.4097 0001504 274.4866  18.9933 15.81995792  3324
STARLINK-36381          
1 67952U 26037W   26069.50002314 -.00024660  00000+0 -11486-3 0  9997
2 67952  42.9984 193.3873 0001497 258.5231  43.4976 15.82024635  3325
STARLINK-36824          
1 67953U 26037X   26069.50002314 -.00043549  00000+0 -20516-3 0  9999
2 67953  42.9986 193.3978 0001426 275.1601  22.5772 15.82032937  3328
STARLINK-36869          
1 67954U 26037Y   26069.50002314 -.00048744  00000+0 -22991-3 0  9991
2 67954  42.9985 193.3764 0001573 277.6293  28.6560 15.82047188  3324
STARLINK-36872          
1 67955U 26037Z   26069.50002314 -.00057480  00000+0 -27173-3 0  9996
2 67955  42.9985 193.3543 0001467 262.8555  51.9465 15.82056715  3328
STARLINK-36918          
1 67956U 26037AA  26069.50002314 -.00121836  00000+0 -58245-3 0  9998
2 67956  42.9985 193.3436 0001602 268.1277  50.9568 15.82080374  3322
STARLINK-36829          
1 67957U 26037AB  26069.50002314 -.00077772  00000+0 -36945-3 0  9991
2 67957  42.9986 193.3656 0001469 263.4432  47.1102 15.82055311  3325
STARLINK-36799          
1 67958U 26037AC  26069.50002314 -.00099762  00000+0 -47579-3 0  9990
2 67958  42.9986 193.3332 0001541 261.9894  61.3846 15.82056940  3325
STARLINK-36834          
1 67959U 26037AD  26069.50002314 -.00114642  00000+0 -54753-3 0  9998
2 67959  42.9987 193.3111 0001522 258.3754  73.5422 15.82078084  3324
